NORAD_CAT_ID,OBJECT_NAME,OBJECT_TYPE,EPOCH,MEAN_MOTION,ECCENTRICITY,INCLINATION,RA_OF_ASC_NODE,ARG_OF_PERICENTER,MEAN_ANOMALY,BSTAR,MEAN_MOTION_DOT,MEAN_MOTION_DDOT,TLE_LINE0,TLE_LINE1,TLE_LINE2,SEMIMAJOR_AXIS,PERIOD,APOGEE,PERIGEE,DECAYED
49743.0,STARLINK-3239,PAYLOAD,2023-06-05 12:08:26,15.08836121,0.0001109,53.2175,354.9668,97.7718,262.34,3.1749e-05,2.17e-06,0.0,0 STARLINK-3239,1 49743U 21115V   23156.50586687  .00000217  00000-0  31749-4 0  9997,2 49743  53.2175 354.9668 0001109  97.7718 262.3400 15.08836121 83332,6917.892,95.438,540.524,538.99,0.0
49743.0,STARLINK-3239,PAYLOAD,2023-06-05 16:54:36,15.0883746,0.0001126,53.2176,354.075,94.4802,265.6318,7.8118e-06,-1.63e-06,0.0,0 STARLINK-3239,1 49743U 21115V   23156.70458721 -.00000163  00000-0  78118-5 0  9999,2 49743  53.2176 354.0750 0001126  94.4802 265.6318 15.08837460 84470,6917.888,95.438,540.532,538.974,0.0
49743.0,STARLINK-3239,PAYLOAD,2023-06-05 20:05:22,15.08839847,0.0001128,53.2177,353.4803,94.1476,265.9645,2.5467e-05,1.18e-06,0.0,0 STARLINK-3239,1 49743U 21115V   23156.83706516  .00000118  00000-0  25467-4 0  9998,2 49743  53.2177 353.4803 0001128  94.1476 265.9645 15.08839847 83385,6917.881,95.438,540.526,538.966,0.0
49743.0,STARLINK-3239,PAYLOAD,2023-06-06 00:51:31,15.08845926,0.0001104,53.2173,352.5896,87.0667,273.0451,4.726e-05,4.65e-06,0.0,0 STARLINK-3239,1 49743U 21115V   23157.03578071  .00000465  00000-0  47260-4 0  9994,2 49743  53.2173 352.5896 0001104  87.0667 273.0451 15.08845926 84527,6917.862,95.437,540.491,538.964,0.0
49743.0,STARLINK-3239,PAYLOAD,2023-06-06 11:59:14,15.08834922,0.0001129,53.2176,350.5095,94.8072,265.3049,-6.514e-06,-3.91e-06,0.0,0 STARLINK-3239,1 49743U 21115V   23157.49946988 -.00000391  00000-0 -65140-5 0  9998,2 49743  53.2176 350.5095 0001129  94.8072 265.3049 15.08834922 83487,6917.896,95.438,540.542,538.98,0.0
49743.0,STARLINK-3239,PAYLOAD,2023-06-06 15:10:00,15.0883309,7.7e-05,53.2179,349.9139,100.1514,259.9565,-1.552e-05,-5.35e-06,0.0,0 STARLINK-3239,1 49743U 21115V   23157.63195138 -.00000535  00000-0 -15520-4 0  9993,2 49743  53.2179 349.9139 0000770 100.1514 259.9565 15.08833090 84617,6917.902,95.438,540.299,539.234,0.0
49743.0,STARLINK-3239,PAYLOAD,2023-06-06 18:20:46,15.0884017,9.82e-05,53.2171,349.3189,87.3494,272.7611,4.107e-05,3.66e-06,0.0,0 STARLINK-3239,1 49743U 21115V   23157.76442618  .00000366  00000-0  41070-4 0  9994,2 49743  53.2171 349.3189 0000982  87.3494 272.7611 15.08840170 83527,6917.88,95.438,540.424,539.066,0.0
49743.0,STARLINK-3239,PAYLOAD,2023-06-06 19:56:09,15.08841818,9.61e-05,53.2172,349.0217,88.5938,271.5164,5.5443e-05,5.95e-06,0.0,0 STARLINK-3239,1 49743U 21115V   23157.83066473  .00000595  00000-0  55443-4 0  9996,2 49743  53.2172 349.0217 0000961  88.5938 271.5164 15.08841818 84644,6917.875,95.437,540.405,539.075,0.0
49743.0,STARLINK-3239,PAYLOAD,2023-06-07 13:25:24,15.08831747,9.58e-05,53.2173,345.7508,86.3595,273.7506,5.8786e-06,-1.94e-06,0.0,0 STARLINK-3239,1 49743U 21115V   23158.55931499 -.00000194  00000-0  58786-5 0  9995,2 49743  53.2173 345.7508 0000958  86.3595 273.7506 15.08831747 83645,6917.906,95.438,540.433,539.108,0.0
49743.0,STARLINK-3239,PAYLOAD,2023-06-07 18:11:33,15.08837139,9.55e-05,53.2168,344.8587,91.2834,268.8268,5.5716e-05,5.99e-06,0.0,0 STARLINK-3239,1 49743U 21115V   23158.75803082  .00000599  00000-0  55716-4 0  9990,2 49743  53.2168 344.8587 0000955  91.2834 268.8268 15.08837139 84781,6917.889,95.438,540.415,539.093,0.0
49743.0,STARLINK-3239,PAYLOAD,2023-06-07 21:22:19,15.0884069,9.42e-05,53.2168,344.2639,85.8742,274.2357,9.5881e-05,1.239e-05,0.0,0 STARLINK-3239,1 49743U 21115V   23158.89050792  .00001239  00000-0  95881-4 0  9996,2 49743  53.2168 344.2639 0000942  85.8742 274.2357 15.08840690 83691,6917.878,95.438,540.395,539.092,0.0
49743.0,STARLINK-3239,PAYLOAD,2023-06-08 11:40:48,15.0883405,7.56e-05,53.2176,341.5879,102.9385,257.1692,0.0001232,1.673e-05,0.0,0 STARLINK-3239,1 49743U 21115V   23159.48667179  .00001673  00000-0  12320-3 0  9993,2 49743  53.2176 341.5879 0000756 102.9385 257.1692 15.08834050 83788,6917.899,95.438,540.287,539.241,0.0
49743.0,STARLINK-3239,PAYLOAD,2023-06-08 19:37:43,15.0884061,0.000101,53.2175,340.1012,89.026,271.0848,8.6484e-05,1.089e-05,0.0,0 STARLINK-3239,1 49743U 21115V   23159.81787014  .00001089  00000-0  86484-4 0  9995,2 49743  53.2175 340.1012 0001010  89.0260 271.0848 15.08840610 84948,6917.879,95.438,540.442,539.045,0.0
49743.0,STARLINK-3239,PAYLOAD,2023-06-09 05:10:02,15.08842285,0.0001083,53.2177,338.3161,86.7673,273.3443,4.9928e-05,5.07e-06,0.0,0 STARLINK-3239,1 49743U 21115V   23160.21530994  .00000507  00000-0  49928-4 0  9990,2 49743  53.2177 338.3161 0001083  86.7673 273.3443 15.08842285 83895,6917.873,95.437,540.488,538.989,0.0
49743.0,STARLINK-3239,PAYLOAD,2023-06-09 21:03:53,15.08845904,0.0001135,53.2176,335.3423,92.6525,267.4597,0.0001125,1.503e-05,0.0,0 STARLINK-3239,1 49743U 21115V   23160.87770696  .00001503  00000-0  11250-3 0  9990,2 49743  53.2176 335.3423 0001135  92.6525 267.4597 15.08845904 83998,6917.862,95.437,540.513,538.942,0.0
49743.0,STARLINK-3239,PAYLOAD,2023-06-10 05:00:49,15.08841551,0.0001088,53.2172,333.8519,120.2614,239.8486,9.5573e-05,1.234e-05,0.0,0 STARLINK-3239,1 49743U 21115V   23161.20890843  .00001234  00000-0  95573-4 0  9997,2 49743  53.2172 333.8519 0001088 120.2614 239.8486 15.08841551 85151,6917.876,95.437,540.493,538.988,0.0
49743.0,STARLINK-3239,PAYLOAD,2023-06-10 14:33:08,15.08834676,8.51e-05,53.2166,332.0671,108.8245,251.284,0.0001321,1.815e-05,0.0,0 STARLINK-3239,1 49743U 21115V   23161.60635191  .00001815  00000-0  13210-3 0  9996,2 49743  53.2166 332.0671 0000851 108.8245 251.2840 15.08834676 85212,6917.897,95.438,540.35,539.173,0.0
49743.0,STARLINK-3239,PAYLOAD,2023-06-10 20:54:40,15.08847481,0.0001046,53.2166,330.8777,115.3101,244.8,3.4551e-05,2.62e-06,0.0,0 STARLINK-3239,1 49743U 21115V   23161.87130584  .00000262  00000-0  34551-4 0  9998,2 49743  53.2166 330.8777 0001046 115.3101 244.8000 15.08847481 84141,6917.858,95.437,540.446,538.999,0.0
49743.0,STARLINK-3239,PAYLOAD,2023-06-11 04:51:36,15.08840777,9.94e-05,53.2157,329.394,76.6799,283.4304,3.2817e-05,2.35e-06,0.0,0 STARLINK-3239,1 49743U 21115V   23162.20251087  .00000235  00000-0  32817-4 0  9991,2 49743  53.2157 329.3940 0000994  76.6799 283.4304 15.08840777 85305,6917.878,95.438,540.431,539.055,0.0
49743.0,STARLINK-3239,PAYLOAD,2023-06-11 20:45:28,15.08842204,0.0001032,53.2158,326.4192,103.8288,256.2819,-1.426e-07,-2.9e-06,0.0,0 STARLINK-3239,1 49743U 21115V   23162.86491090 -.00000290  00000-0 -14260-6 0  9990,2 49743  53.2158 326.4192 0001032 103.8288 256.2819 15.08842204 84296,6917.874,95.437,540.453,539.025,0.0
49743.0,STARLINK-3239,PAYLOAD,2023-06-12 17:25:28,15.08842973,0.0001129,53.2173,322.5548,88.3671,271.7451,8.0963e-05,1.001e-05,0.0,0 STARLINK-3239,1 49743U 21115V   23163.72602926  .00001001  00000-0  80963-4 0  9998,2 49743  53.2173 322.5548 0001129  88.3671 271.7451 15.08842973 85530,6917.871,95.437,540.517,538.955,0.0
49743.0,STARLINK-3239,PAYLOAD,2023-06-13 09:19:21,15.08832884,0.0001077,53.2178,319.5818,82.2667,277.8447,4.7885e-05,4.74e-06,0.0,0 STARLINK-3239,1 49743U 21115V   23164.38843750  .00000474  00000-0  47885-4 0  9992,2 49743  53.2178 319.5818 0001077  82.2667 277.8447 15.08832884 85634,6917.902,95.438,540.512,539.022,0.0
49743.0,STARLINK-3239,PAYLOAD,2023-06-14 12:20:54,15.08839923,0.0001106,53.2182,314.5267,99.011,261.1007,3.5215e-05,2.73e-06,0.0,0 STARLINK-3239,1 49743U 21115V   23165.51451524  .00000273  00000-0  35215-4 0  9993,2 49743  53.2182 314.5267 0001106  99.0110 261.1007 15.08839923 85802,6917.881,95.438,540.511,538.981,0.0
49743.0,STARLINK-3239,PAYLOAD,2023-06-14 20:17:49,15.08844253,0.0001122,53.2184,313.0409,99.4604,260.6515,7.1304e-05,8.47e-06,0.0,0 STARLINK-3239,1 49743U 21115V   23165.84571119  .00000847  00000-0  71304-4 0  9998,2 49743  53.2184 313.0409 0001122  99.4604 260.6515 15.08844253 84748,6917.867,95.437,540.509,538.956,0.0
49743.0,STARLINK-3239,PAYLOAD,2023-06-15 13:47:04,15.0883537,0.0001013,53.2174,309.7685,101.1663,258.9443,2.6116e-05,1.28e-06,0.0,0 STARLINK-3239,1 49743U 21115V   23166.57435979  .00000128  00000-0  26116-4 0  9995,2 49743  53.2174 309.7685 0001013 101.1663 258.9443 15.08835370 84852,6917.895,95.438,540.46,539.059,0.0
49743.0,STARLINK-3239,PAYLOAD,2023-06-15 18:33:13,15.08840458,0.000107,53.2177,308.8768,97.2032,262.9082,7.0456e-05,8.34e-06,0.0,0 STARLINK-3239,1 49743U 21115V   23166.77307577  .00000834  00000-0  70456-4 0  9999,2 49743  53.2177 308.8768 0001070  97.2032 262.9082 15.08840458 85998,6917.879,95.438,540.484,539.004,0.0
49743.0,STARLINK-3239,PAYLOAD,2023-06-16 12:02:27,15.08848034,0.0001148,53.2179,305.6071,99.6587,260.4535,0.00011511,1.545e-05,0.0,0 STARLINK-3239,1 49743U 21115V   23167.50170959  .00001545  00000-0  11511-3 0  9999,2 49743  53.2179 305.6071 0001148  99.6587 260.4535 15.08848034 84992,6917.856,95.437,540.515,538.927,0.0
49743.0,STARLINK-3239,PAYLOAD,2023-06-16 13:37:50,15.08850255,0.0001161,53.2181,305.3098,99.1147,260.9977,0.00013585,1.875e-05,0.0,0 STARLINK-3239,1 49743U 21115V   23167.56794769  .00001875  00000-0  13585-3 0  9995,2 49743  53.2181 305.3098 0001161  99.1147 260.9977 15.08850255 86112,6917.849,95.437,540.517,538.911,0.0
49743.0,STARLINK-3239,PAYLOAD,2023-06-16 18:23:59,15.08860286,0.0001078,53.2178,304.4168,92.7464,267.3652,0.00017869,2.559e-05,0.0,0 STARLINK-3239,1 49743U 21115V   23167.76665897  .00002559  00000-0  17869-3 0  9995,2 49743  53.2178 304.4168 0001078  92.7464 267.3652 15.08860286 85030,6917.818,95.436,540.429,538.938,0.0
49743.0,STARLINK-3239,PAYLOAD,2023-06-17 02:20:57,15.08831824,0.0001343,53.218,302.9291,78.2622,281.8521,9.297e-06,-1.4e-06,0.0,0 STARLINK-3239,1 49743U 21115V   23168.09788280 -.00000140  00000-0  92970-5 0  9997,2 49743  53.2180 302.9291 0001343  78.2622 281.8521 15.08831824 86193,6917.905,95.438,540.699,538.841,0.0
